CCSDS_OMM_VERS = 2.0
CREATION_DATE  = 
ORIGINATOR     = 

OBJECT_NAME    = STARLINK-36984
OBJECT_ID      = 2026-050B
CENTER_NAME    = EARTH
REF_FRAME      = TEME
TIME_SYSTEM    = UTC
MEAN_ELEMENT_THEORY = SGP/SGP4

EPOCH          = 2026-03-28T12:39:42.473088
MEAN_MOTION    = 15.80973859
ECCENTRICITY   = .00008911
INCLINATION    = 53.1599
RA_OF_ASC_NODE = 187.4253
ARG_OF_PERICENTER = 61.5283
MEAN_ANOMALY   = 298.5829

EPHEMERIS_TYPE = 0
CLASSIFICATION_TYPE = U
NORAD_CAT_ID   = 68168
ELEMENT_SET_NO = 999
REV_AT_EPOCH   = 345
BSTAR          = .12136206E-2
MEAN_MOTION_DOT = .246953E-2
MEAN_MOTION_DDOT = 0

CCSDS_OMM_VERS = 2.0
CREATION_DATE  = 
ORIGINATOR     = 

OBJECT_NAME    = STARLINK-37077
OBJECT_ID      = 2026-050C
CENTER_NAME    = EARTH
REF_FRAME      = TEME
TIME_SYSTEM    = UTC
MEAN_ELEMENT_THEORY = SGP/SGP4

EPOCH          = 2026-03-28T12:38:36.411648
MEAN_MOTION    = 15.81062900
ECCENTRICITY   = .00014762
INCLINATION    = 53.1600
RA_OF_ASC_NODE = 187.4200
ARG_OF_PERICENTER = 45.2353
MEAN_ANOMALY   = 314.8789

EPHEMERIS_TYPE = 0
CLASSIFICATION_TYPE = U
NORAD_CAT_ID   = 68169
ELEMENT_SET_NO = 999
REV_AT_EPOCH   = 345
BSTAR          = .14688709E-2
MEAN_MOTION_DOT = .302218E-2
MEAN_MOTION_DDOT = 0

CCSDS_OMM_VERS = 2.0
CREATION_DATE  = 
ORIGINATOR     = 

OBJECT_NAME    = STARLINK-37003
OBJECT_ID      = 2026-050D
CENTER_NAME    = EARTH
REF_FRAME      = TEME
TIME_SYSTEM    = UTC
MEAN_ELEMENT_THEORY = SGP/SGP4

EPOCH          = 2026-03-28T12:37:31.598688
MEAN_MOTION    = 15.81087224
ECCENTRICITY   = .00012195
INCLINATION    = 53.1598
RA_OF_ASC_NODE = 187.4145
ARG_OF_PERICENTER = 54.8663
MEAN_ANOMALY   = 305.2474

EPHEMERIS_TYPE = 0
CLASSIFICATION_TYPE = U
NORAD_CAT_ID   = 68170
ELEMENT_SET_NO = 999
REV_AT_EPOCH   = 345
BSTAR          = .18686009E-2
MEAN_MOTION_DOT = .389032E-2
MEAN_MOTION_DDOT = 0

CCSDS_OMM_VERS = 2.0
CREATION_DATE  = 
ORIGINATOR     = 

OBJECT_NAME    = STARLINK-37034
OBJECT_ID      = 2026-050E
CENTER_NAME    = EARTH
REF_FRAME      = TEME
TIME_SYSTEM    = UTC
MEAN_ELEMENT_THEORY = SGP/SGP4

EPOCH          = 2026-03-28T12:36:26.736480
MEAN_MOTION    = 15.81083623
ECCENTRICITY   = .00013823
INCLINATION    = 53.1598
RA_OF_ASC_NODE = 187.4096
ARG_OF_PERICENTER = 34.8570
MEAN_ANOMALY   = 325.2543

EPHEMERIS_TYPE = 0
CLASSIFICATION_TYPE = U
NORAD_CAT_ID   = 68171
ELEMENT_SET_NO = 999
REV_AT_EPOCH   = 345
BSTAR          = .17786695E-2
MEAN_MOTION_DOT = .369355E-2
MEAN_MOTION_DDOT = 0

CCSDS_OMM_VERS = 2.0
CREATION_DATE  = 
ORIGINATOR     = 

OBJECT_NAME    = STARLINK-37031
OBJECT_ID      = 2026-050F
CENTER_NAME    = EARTH
REF_FRAME      = TEME
TIME_SYSTEM    = UTC
MEAN_ELEMENT_THEORY = SGP/SGP4

EPOCH          = 2026-03-28T12:35:23.225568
MEAN_MOTION    = 15.80982588
ECCENTRICITY   = .00011631
INCLINATION    = 53.1596
RA_OF_ASC_NODE = 187.4043
ARG_OF_PERICENTER = 40.9041
MEAN_ANOMALY   = 319.2069

EPHEMERIS_TYPE = 0
CLASSIFICATION_TYPE = U
NORAD_CAT_ID   = 68172
ELEMENT_SET_NO = 999
REV_AT_EPOCH   = 345
BSTAR          = .12924112E-2
MEAN_MOTION_DOT = .26365E-2
MEAN_MOTION_DDOT = 0

CCSDS_OMM_VERS = 2.0
CREATION_DATE  = 
ORIGINATOR     = 

OBJECT_NAME    = STARLINK-37076
OBJECT_ID      = 2026-050G
CENTER_NAME    = EARTH
REF_FRAME      = TEME
TIME_SYSTEM    = UTC
MEAN_ELEMENT_THEORY = SGP/SGP4

EPOCH          = 2026-03-28T12:34:18.474816
MEAN_MOTION    = 15.80987083
ECCENTRICITY   = .00010899
INCLINATION    = 53.1595
RA_OF_ASC_NODE = 187.3995
ARG_OF_PERICENTER = 63.8673
MEAN_ANOMALY   = 296.2461

EPHEMERIS_TYPE = 0
CLASSIFICATION_TYPE = U
NORAD_CAT_ID   = 68173
ELEMENT_SET_NO = 999
REV_AT_EPOCH   = 345
BSTAR          = .13954267E-2
MEAN_MOTION_DOT = .285512E-2
MEAN_MOTION_DDOT = 0

CCSDS_OMM_VERS = 2.0
CREATION_DATE  = 
ORIGINATOR     = 

OBJECT_NAME    = STARLINK-37078
OBJECT_ID      = 2026-050H
CENTER_NAME    = EARTH
REF_FRAME      = TEME
TIME_SYSTEM    = UTC
MEAN_ELEMENT_THEORY = SGP/SGP4

EPOCH          = 2026-03-28T12:33:12.537792
MEAN_MOTION    = 15.81074566
ECCENTRICITY   = .00009715
INCLINATION    = 53.1595
RA_OF_ASC_NODE = 187.3941
ARG_OF_PERICENTER = 69.1127
MEAN_ANOMALY   = 291.0000

EPHEMERIS_TYPE = 0
CLASSIFICATION_TYPE = U
NORAD_CAT_ID   = 68174
ELEMENT_SET_NO = 999
REV_AT_EPOCH   = 345
BSTAR          = .18223156E-2
MEAN_MOTION_DOT = .378703E-2
MEAN_MOTION_DDOT = 0

CCSDS_OMM_VERS = 2.0
CREATION_DATE  = 
ORIGINATOR     = 

OBJECT_NAME    = STARLINK-36886
OBJECT_ID      = 2026-050J
CENTER_NAME    = EARTH
REF_FRAME      = TEME
TIME_SYSTEM    = UTC
MEAN_ELEMENT_THEORY = SGP/SGP4

EPOCH          = 2026-03-28T14:03:11.541600
MEAN_MOTION    = 15.80914447
ECCENTRICITY   = .00021971
INCLINATION    = 53.1594
RA_OF_ASC_NODE = 187.0723
ARG_OF_PERICENTER = 39.2857
MEAN_ANOMALY   = 320.8325

EPHEMERIS_TYPE = 0
CLASSIFICATION_TYPE = U
NORAD_CAT_ID   = 68175
ELEMENT_SET_NO = 999
REV_AT_EPOCH   = 346
BSTAR          = .80253888E-3
MEAN_MOTION_DOT = .160998E-2
MEAN_MOTION_DDOT = 0

CCSDS_OMM_VERS = 2.0
CREATION_DATE  = 
ORIGINATOR     = 

OBJECT_NAME    = STARLINK-36905
OBJECT_ID      = 2026-050K
CENTER_NAME    = EARTH
REF_FRAME      = TEME
TIME_SYSTEM    = UTC
MEAN_ELEMENT_THEORY = SGP/SGP4

EPOCH          = 2026-03-28T14:02:06.040032
MEAN_MOTION    = 15.80984497
ECCENTRICITY   = .00011942
INCLINATION    = 53.1594
RA_OF_ASC_NODE = 187.0677
ARG_OF_PERICENTER = 74.9579
MEAN_ANOMALY   = 285.1576

EPHEMERIS_TYPE = 0
CLASSIFICATION_TYPE = U
NORAD_CAT_ID   = 68176
ELEMENT_SET_NO = 999
REV_AT_EPOCH   = 346
BSTAR          = .12851992E-2
MEAN_MOTION_DOT = .262152E-2
MEAN_MOTION_DDOT = 0

CCSDS_OMM_VERS = 2.0
CREATION_DATE  = 
ORIGINATOR     = 

OBJECT_NAME    = STARLINK-36668
OBJECT_ID      = 2026-050L
CENTER_NAME    = EARTH
REF_FRAME      = TEME
TIME_SYSTEM    = UTC
MEAN_ELEMENT_THEORY = SGP/SGP4

EPOCH          = 2026-03-28T14:01:01.804224
MEAN_MOTION    = 15.80892910
ECCENTRICITY   = .00014556
INCLINATION    = 53.1595
RA_OF_ASC_NODE = 187.0619
ARG_OF_PERICENTER = 41.2009
MEAN_ANOMALY   = 318.9124

EPHEMERIS_TYPE = 0
CLASSIFICATION_TYPE = U
NORAD_CAT_ID   = 68177
ELEMENT_SET_NO = 999
REV_AT_EPOCH   = 346
BSTAR          = .52661622E-3
MEAN_MOTION_DOT = .104602E-2
MEAN_MOTION_DDOT = 0

CCSDS_OMM_VERS = 2.0
CREATION_DATE  = 
ORIGINATOR     = 

OBJECT_NAME    = STARLINK-36677
OBJECT_ID      = 2026-050M
CENTER_NAME    = EARTH
REF_FRAME      = TEME
TIME_SYSTEM    = UTC
MEAN_ELEMENT_THEORY = SGP/SGP4

EPOCH          = 2026-03-28T13:59:57.011136
MEAN_MOTION    = 15.80893169
ECCENTRICITY   = .00017399
INCLINATION    = 53.1595
RA_OF_ASC_NODE = 187.0567
ARG_OF_PERICENTER = 54.9549
MEAN_ANOMALY   = 305.1637

EPHEMERIS_TYPE = 0
CLASSIFICATION_TYPE = U
NORAD_CAT_ID   = 68178
ELEMENT_SET_NO = 999
REV_AT_EPOCH   = 346
BSTAR          = .50119611E-3
MEAN_MOTION_DOT = .99462E-3
MEAN_MOTION_DDOT = 0

CCSDS_OMM_VERS = 2.0
CREATION_DATE  = 
ORIGINATOR     = 

OBJECT_NAME    = STARLINK-37052
OBJECT_ID      = 2026-050N
CENTER_NAME    = EARTH
REF_FRAME      = TEME
TIME_SYSTEM    = UTC
MEAN_ELEMENT_THEORY = SGP/SGP4

EPOCH          = 2026-03-28T13:58:52.091040
MEAN_MOTION    = 15.80921747
ECCENTRICITY   = .00015076
INCLINATION    = 53.1591
RA_OF_ASC_NODE = 187.0521
ARG_OF_PERICENTER = 60.2930
MEAN_ANOMALY   = 299.8243

EPHEMERIS_TYPE = 0
CLASSIFICATION_TYPE = U
NORAD_CAT_ID   = 68179
ELEMENT_SET_NO = 999
REV_AT_EPOCH   = 346
BSTAR          = .82338478E-3
MEAN_MOTION_DOT = .16533E-2
MEAN_MOTION_DDOT = 0

