STARLINK-36984          
1 68168U 26050B   26087.52757492  .00246953  00000+0  12136-2 0  9999
2 68168  53.1599 187.4253 0000891  61.5283 298.5829 15.80973859  3456
STARLINK-37077          
1 68169U 26050C   26087.52681032  .00302218  00000+0  14689-2 0  9998
2 68169  53.1600 187.4200 0001476  45.2353 314.8789 15.81062900  3453
STARLINK-37003          
1 68170U 26050D   26087.52606017  .00389032  00000+0  18686-2 0  9990
2 68170  53.1598 187.4145 0001219  54.8663 305.2474 15.81087224  3455
STARLINK-37034          
1 68171U 26050E   26087.52530945  .00369355  00000+0  17787-2 0  9994
2 68171  53.1598 187.4096 0001382  34.8570 325.2543 15.81083623  3455
STARLINK-37031          
1 68172U 26050F   26087.52457437  .00263650  00000+0  12924-2 0  9998
2 68172  53.1596 187.4043 0001163  40.9041 319.2069 15.80982588  3457
STARLINK-37076          
1 68173U 26050G   26087.52382494  .00285512  00000+0  13954-2 0  9994
2 68173  53.1595 187.3995 0001089  63.8673 296.2461 15.80987083  3459
STARLINK-37078          
1 68174U 26050H   26087.52306178  .00378703  00000+0  18223-2 0  9999
2 68174  53.1595 187.3941 0000971  69.1127 291.0000 15.81074566  3459
STARLINK-36886          
1 68175U 26050J   26087.58555025  .00160998  00000+0  80254-3 0  9992
2 68175  53.1594 187.0723 0002197  39.2857 320.8325 15.80914447  3466
STARLINK-36905          
1 68176U 26050K   26087.58479213  .00262152  00000+0  12852-2 0  9990
2 68176  53.1594 187.0677 0001194  74.9579 285.1576 15.80984497  3461
STARLINK-36668          
1 68177U 26050L   26087.58404866  .00104602  00000+0  52662-3 0  9992
2 68177  53.1595 187.0619 0001455  41.2009 318.9124 15.80892910  3466
STARLINK-36677          
1 68178U 26050M   26087.58329874  .00099462  00000+0  50120-3 0  9992
2 68178  53.1595 187.0567 0001739  54.9549 305.1637 15.80893169  3468
STARLINK-37052          
1 68179U 26050N   26087.58254735  .00165330  00000+0  82338-3 0  9990
2 68179  53.1591 187.0521 0001507  60.2930 299.8243 15.80921747  3468
